[{"OBJECT_NAME":"SVYATOBOR 1 (RS60S)","OBJECT_ID":"2023-091X","EPOCH":"2026-03-09T23:06:11.081664","MEAN_MOTION":15.2482043,"ECCENTRICITY":0.00111996,"INCLINATION":97.5206,"RA_OF_ASC_NODE":132.3062,"ARG_OF_PERICENTER":84.4206,"MEAN_ANOMALY":275.8308,"EPHEMERIS_TYPE":0,"CLASSIFICATION_TYPE":"U","NORAD_CAT_ID":57187,"ELEMENT_SET_NO":999,"REV_AT_EPOCH":14918,"BSTAR":0.00046454276,"MEAN_MOTION_DOT":0.00011484,"MEAN_MOTION_DDOT":0},{"OBJECT_NAME":"HORS 5","OBJECT_ID":"2025-313AM","EPOCH":"2026-03-09T21:29:36.364128","MEAN_MOTION":15.22460599,"ECCENTRICITY":0.00102591,"INCLINATION":97.4003,"RA_OF_ASC_NODE":145.2415,"ARG_OF_PERICENTER":355.2078,"MEAN_ANOMALY":4.9058,"EPHEMERIS_TYPE":0,"CLASSIFICATION_TYPE":"U","NORAD_CAT_ID":67283,"ELEMENT_SET_NO":999,"REV_AT_EPOCH":1085,"BSTAR":0.0004492473,"MEAN_MOTION_DOT":0.00010348,"MEAN_MOTION_DDOT":0}]
